*******************************************************************************
JPL/HORIZONS               1492 Oppolzer (1938 FL)         2023-Sep-04 11:12:28
Rec #:    1492 (+COV) Soln.date: 2023-Aug-22_03:36:58   # obs: 4228 (1954-2023)
 
IAU76/J2000 helio. ecliptic osc. elements (au, days, deg., period=Julian yrs):
 
  EPOCH=  2457534.5 ! 2016-May-26.00 (TDB)         Residual RMS= .26708
   EC= .1162773532303421   QR= 1.920569809101476   TP= 2457146.6686663982
   OM= 137.810008371723    W=  81.32665265536455   IN= 6.057820860065495
   A= 2.173272141572798    MA= 119.3097121872516   ADIST= 2.42597447404412
   PER= 3.2039             N= .307632988           ANGMOM= .025187354
   DAN= 2.10694            DDN= 2.18215            L= 219.088703
   B= 5.9882896            MOID= .92466199         TP= 2015-May-04.1686663982
 
Asteroid physical parameters (km, seconds, rotational period in hours):
   GM= n.a.                RAD= 6.135              ROTPER= 3.76945
   H= 13.01                G= .150                 B-V= n.a.
                           ALBEDO= .089            STYP= n.a.

ASTEROID comments: 
1: soln ref.= JPL#56, OCC=0
2: source=ORB
*******************************************************************************


*******************************************************************************
Ephemeris / API_USER Mon Sep  4 11:12:28 2023 Pasadena, USA      / Horizons
*******************************************************************************
Target body name: 1492 Oppolzer (1938 FL)         {source: JPL#56}
Center body name: Solar System Barycenter (0)     {source: DE441}
Center-site name: BODY CENTER
*******************************************************************************
Start time      : A.D. 2023-Aug-12 00:00:00.0000 TDB
Stop  time      : A.D. 2023-Aug-13 00:00:00.0000 TDB
Step-size       : 2880 minutes
*******************************************************************************
Center geodetic : 0.0, 0.0, 0.0                   {E-lon(deg),Lat(deg),Alt(km)}
Center cylindric: 0.0, 0.0, 0.0                   {E-lon(deg),Dxy(km),Dz(km)}
Center radii    : (undefined)
Small perturbers: Yes                             {source: SB441-N16}
Output units    : KM-S
Calendar mode   : Mixed Julian/Gregorian
Output type     : GEOMETRIC cartesian states
Output format   : 2 (position and velocity)
Reference frame : Ecliptic of J2000.0
*******************************************************************************
Initial IAU76/J2000 heliocentric ecliptic osculating elements (au, days, deg.):
  EPOCH=  2457534.5 ! 2016-May-26.00 (TDB)         Residual RMS= .26708        
   EC= .1162773532303421   QR= 1.920569809101476   TP= 2457146.6686663982      
   OM= 137.810008371723    W=  81.32665265536455   IN= 6.057820860065495       
  Equivalent ICRF heliocentric cartesian coordinates (au, au/d):
   X= 2.272060664282429E+00  Y=-3.512590144757372E-01  Z=-2.912409561449009E-01
  VX= 3.021176506145310E-03 VY= 9.991845692838825E-03 VZ= 3.202469602808971E-03
Asteroid physical parameters (km, seconds, rotational period in hours):        
   GM= n.a.                RAD= 6.135              ROTPER= 3.76945             
   H= 13.01                G= .150                 B-V= n.a.                   
                           ALBEDO= .089            STYP= n.a.                  
*******************************************************************************
JDTDB
   X     Y     Z
   VX    VY    VZ
*******************************************************************************
$$SOE
2460168.500000000 = A.D. 2023-Aug-12 00:00:00.0000 TDB 
 X = 1.607358758274675E+08 Y = 3.181327552646498E+08 Z =-3.651986186389749E+07
 VX=-1.657981818448998E+01 VY= 7.433479601572700E+00 VZ= 5.992232236816255E-01
$$EOE
*******************************************************************************
 
TIME

  Barycentric Dynamical Time ("TDB" or T_eph) output was requested. This
continuous coordinate time is equivalent to the relativistic proper time
of a clock at rest in a reference frame co-moving with the solar system
barycenter but outside the system's gravity well. It is the independent
variable in the solar system relativistic equations of motion.

  TDB runs at a uniform rate of one SI second per second and is independent
of irregularities in Earth's rotation.
 
CALENDAR SYSTEM

  Mixed calendar mode was active such that calendar dates after AD 1582-Oct-15
(if any) are in the modern Gregorian system. Dates prior to 1582-Oct-5 (if any)
are in the Julian calendar system, which is automatically extended for dates
prior to its adoption on 45-Jan-1 BC.  The Julian calendar is useful for
matching historical dates. The Gregorian calendar more accurately corresponds
to the Earth's orbital motion and seasons. A "Gregorian-only" calendar mode is
available if such physical events are the primary interest.

REFERENCE FRAME AND COORDINATES

  Ecliptic at the standard reference epoch

    Reference epoch: J2000.0
    X-Y plane: adopted Earth orbital plane at the reference epoch
               Note: IAU76 obliquity of 84381.448 arcseconds wrt ICRF X-Y plane
    X-axis   : ICRF
    Z-axis   : perpendicular to the X-Y plane in the directional (+ or -) sense
               of Earth's north pole at the reference epoch.

  Symbol meaning:

    JDTDB    Julian Day Number, Barycentric Dynamical Time
      X      X-component of position vector (km)
      Y      Y-component of position vector (km)
      Z      Z-component of position vector (km)
      VX     X-component of velocity vector (km/sec)                           
      VY     Y-component of velocity vector (km/sec)                           
      VZ     Z-component of velocity vector (km/sec)                           

ABERRATIONS AND CORRECTIONS

 Geometric state vectors have NO corrections or aberrations applied.

Computations by ...

    Solar System Dynamics Group, Horizons On-Line Ephemeris System
    4800 Oak Grove Drive, Jet Propulsion Laboratory
    Pasadena, CA  91109   USA

    General site: https://ssd.jpl.nasa.gov/
    Mailing list: https://ssd.jpl.nasa.gov/email_list.html
    System news : https://ssd.jpl.nasa.gov/horizons/news.html
    User Guide  : https://ssd.jpl.nasa.gov/horizons/manual.html
    Connect     : browser        https://ssd.jpl.nasa.gov/horizons/app.html#/x
                  API            https://ssd-api.jpl.nasa.gov/doc/horizons.html
                  command-line   telnet ssd.jpl.nasa.gov 6775
                  e-mail/batch   https://ssd.jpl.nasa.gov/ftp/ssd/hrzn_batch.txt
                  scripts        https://ssd.jpl.nasa.gov/ftp/ssd/SCRIPTS
    Author      : Jon.D.Giorgini@jpl.nasa.gov
*******************************************************************************
